{"type": "FeatureCollection", "features": [ {"type": "Feature", "properties": {"norad_id": 41785, "name": "ALSAT 1B", "group": "resource", "lat": -52.84870693822988, "lon": 17.498963447914342, "alt_km": 666.4605731421925, "timestamp": "2025-12-21T16:47:54.386303+00:00", "meta": {"OBJECT_NAME": "ALSAT 1B", "OBJECT_ID": "2016-059C", "EPOCH": "2025-12-21T12:08:50.896896", "MEAN_MOTION": 14.72084481, "ECCENTRICITY": 0.0010808, "INCLINATION": 97.7804, "RA_OF_ASC_NODE": 6.9177, "ARG_OF_PERICENTER": 78.7752, "MEAN_ANOMALY": 281.467, "EPHEMERIS_TYPE": 0, "CLASSIFICATION_TYPE": "U", "NORAD_CAT_ID": 41785, "ELEMENT_SET_NO": 999, "REV_AT_EPOCH": 49443, "BSTAR": 8.0002e-05, "MEAN_MOTION_DOT": 4.56e-06, "MEAN_MOTION_DDOT": 0}, "tle": {"line1": "1 41785U 16059C   25355.50614464  .00000456  00000+0  80002-4 0  9994", "line2": "2 41785  97.7804   6.9177 0010808  78.7752 281.4670 14.72084481494436"}}, "geometry": {"type": "Point", "coordinates": [17.498963447914342, -52.84870693822988]}}, {"type": "Feature", "properties": {"norad_id": 41787, "name": "PATHFINDER 1", "group": "resource", "lat": -51.587016829891866, "lon": 168.08559574099675, "alt_km": 697.5371226762227, "timestamp": "2025-12-21T16:47:54.386320+00:00", "meta": {"OBJECT_NAME": "PATHFINDER 1", "OBJECT_ID": "2016-059E", "EPOCH": "2025-12-21T12:28:17.461056", "MEAN_MOTION": 14.67335413, "ECCENTRICITY": 0.0029796, "INCLINATION": 97.8136, "RA_OF_ASC_NODE": 357.8858, "ARG_OF_PERICENTER": 54.4562, "MEAN_ANOMALY": 305.9415, "EPHEMERIS_TYPE": 0, "CLASSIFICATION_TYPE": "U", "NORAD_CAT_ID": 41787, "ELEMENT_SET_NO": 999, "REV_AT_EPOCH": 49365, "BSTAR": 0.00011889, "MEAN_MOTION_DOT": 6.29e-06, "MEAN_MOTION_DDOT": 0}, "tle": {"line1": "1 41787U 16059E   25355.51964654  .00000629  00000+0  11889-3 0  9994", "line2": "2 41787  97.8136 357.8858 0029796  54.4562 305.9415 14.67335413493657"}}, "geometry": {"type": "Point", "coordinates": [168.08559574099675, -51.587016829891866]}}, {"type": "Feature", "properties": {"norad_id": 41790, "name": "SCATSAT 1", "group": "resource", "lat": -58.89699736664333, "lon": -141.25099477175712, "alt_km": 669.999162370339, "timestamp": "2025-12-21T16:47:54.386339+00:00", "meta": {"OBJECT_NAME": "SCATSAT 1", "OBJECT_ID": "2016-059H", "EPOCH": "2025-12-21T02:43:55.700832", "MEAN_MOTION": 14.78961089, "ECCENTRICITY": 0.00564593, "INCLINATION": 98.1451, "RA_OF_ASC_NODE": 51.8883, "ARG_OF_PERICENTER": 101.6086, "MEAN_ANOMALY": 259.147, "EPHEMERIS_TYPE": 0, "CLASSIFICATION_TYPE": "U", "NORAD_CAT_ID": 41790, "ELEMENT_SET_NO": 999, "REV_AT_EPOCH": 7526, "BSTAR": 0.00013897435, "MEAN_MOTION_DOT": 9.97e-06, "MEAN_MOTION_DDOT": 0}, "tle": {"line1": "1 41790U 16059H   25355.11383913  .00000997  00000+0  13897-3 0  9996", "line2": "2 41790  98.1451  51.8883 0056459 101.6086 259.1470 14.78961089 75266"}}, "geometry": {"type": "Point", "coordinates": [-141.25099477175712, -58.89699736664333]}}, {"type": "Feature", "properties": {"norad_id": 41875, "name": "GOKTURK 1A", "group": "resource", "lat": 16.47161025909311, "lon": 70.37195951468779, "alt_km": 684.6549388935591, "timestamp": "2025-12-21T16:47:54.386356+00:00", "meta": {"OBJECT_NAME": "GOKTURK 1A", "OBJECT_ID": "2016-073A", "EPOCH": "2025-12-21T12:46:16.799232", "MEAN_MOTION": 14.62787509, "ECCENTRICITY": 0.0001305, "INCLINATION": 98.1436, "RA_OF_ASC_NODE": 247.7799, "ARG_OF_PERICENTER": 83.2434, "MEAN_ANOMALY": 276.8916, "EPHEMERIS_TYPE": 0, "CLASSIFICATION_TYPE": "U", "NORAD_CAT_ID": 41875, "ELEMENT_SET_NO": 999, "REV_AT_EPOCH": 48285, "BSTAR": 1.5338e-05, "MEAN_MOTION_DOT": 3.1e-07, "MEAN_MOTION_DDOT": 0}, "tle": {"line1": "1 41875U 16073A   25355.53213888  .00000031  00000+0  15338-4 0  9997", "line2": "2 41875  98.1436 247.7799 0001305  83.2434 276.8916 14.62787509482851"}}, "geometry": {"type": "Point", "coordinates": [70.37195951468779, 16.47161025909311]}}, {"type": "Feature", "properties": {"norad_id": 41877, "name": "RESOURCESAT-2A", "group": "resource", "lat": -33.676079882369784, "lon": 71.41135220971556, "alt_km": 826.45730325356, "timestamp": "2025-12-21T16:47:54.386367+00:00", "meta": {"OBJECT_NAME": "RESOURCESAT-2A", "OBJECT_ID": "2016-074A", "EPOCH": "2025-12-21T11:53:28.040352", "MEAN_MOTION": 14.21602927, "ECCENTRICITY": 0.0001421, "INCLINATION": 98.7752, "RA_OF_ASC_NODE": 65.3007, "ARG_OF_PERICENTER": 213.8021, "MEAN_ANOMALY": 146.3065, "EPHEMERIS_TYPE": 0, "CLASSIFICATION_TYPE": "U", "NORAD_CAT_ID": 41877, "ELEMENT_SET_NO": 999, "REV_AT_EPOCH": 46905, "BSTAR": 7.5447e-05, "MEAN_MOTION_DOT": 1.21e-06, "MEAN_MOTION_DDOT": 0}, "tle": {"line1": "1 41877U 16074A   25355.49546343  .00000121  00000+0  75447-4 0  9997", "line2": "2 41877  98.7752  65.3007 0001421 213.8021 146.3065 14.21602927469056"}}, "geometry": {"type": "Point", "coordinates": [71.41135220971556, -33.676079882369784]}}, {"type": "Feature", "properties": {"norad_id": 41948, "name": "CARTOSAT-2D", "group": "resource", "lat": -57.75097108156346, "lon": -138.8881234794555, "alt_km": 515.7920581903227, "timestamp": "2025-12-21T16:47:54.386378+00:00", "meta": {"OBJECT_NAME": "CARTOSAT-2D", "OBJECT_ID": "2017-008A", "EPOCH": "2025-12-21T12:35:28.114944", "MEAN_MOTION": 15.19338725, "ECCENTRICITY": 0.0005327, "INCLINATION": 97.4377, "RA_OF_ASC_NODE": 52.8891, "ARG_OF_PERICENTER": 136.0456, "MEAN_ANOMALY": 224.1203, "EPHEMERIS_TYPE": 0, "CLASSIFICATION_TYPE": "U", "NORAD_CAT_ID": 41948, "ELEMENT_SET_NO": 999, "REV_AT_EPOCH": 49060, "BSTAR": 0.00024999, "MEAN_MOTION_DOT": 5.216e-05, "MEAN_MOTION_DDOT": 0}, "tle": {"line1": "1 41948U 17008A   25355.52463096  .00005216  00000+0  24999-3 0  9996", "line2": "2 41948  97.4377  52.8891 0005327 136.0456 224.1203 15.19338725490607"}}, "geometry": {"type": "Point", "coordinates": [-138.8881234794555, -57.75097108156346]}}, {"type": "Feature", "properties": {"norad_id": 42063, "name": "SENTINEL-2B", "group": "resource", "lat": -50.514170963753386, "lon": -122.5269346606084, "alt_km": 796.5449880872793, "timestamp": "2025-12-21T16:47:54.386389+00:00", "meta": {"OBJECT_NAME": "SENTINEL-2B", "OBJECT_ID": "2017-013A", "EPOCH": "2025-12-21T12:21:52.065216", "MEAN_MOTION": 14.30814768, "ECCENTRICITY": 0.0001201, "INCLINATION": 98.5712, "RA_OF_ASC_NODE": 67.8384, "ARG_OF_PERICENTER": 92.3167, "MEAN_ANOMALY": 267.8154, "EPHEMERIS_TYPE": 0, "CLASSIFICATION_TYPE": "U", "NORAD_CAT_ID": 42063, "ELEMENT_SET_NO": 999, "REV_AT_EPOCH": 45923, "BSTAR": 0.00015203, "MEAN_MOTION_DOT": 3.55e-06, "MEAN_MOTION_DDOT": 0}, "tle": {"line1": "1 42063U 17013A   25355.51518594  .00000355  00000+0  15203-3 0  9991", "line2": "2 42063  98.5712  67.8384 0001201  92.3167 267.8154 14.30814768459235"}}, "geometry": {"type": "Point", "coordinates": [-122.5269346606084, -50.514170963753386]}}, {"type": "Feature", "properties": {"norad_id": 42767, "name": "CARTOSAT-2E", "group": "resource", "lat": 32.3177076196228, "lon": -122.07821699234144, "alt_km": 504.94492002216157, "timestamp": "2025-12-21T16:47:54.386399+00:00", "meta": {"OBJECT_NAME": "CARTOSAT-2E", "OBJECT_ID": "2017-036C", "EPOCH": "2025-12-21T11:24:36.331200", "MEAN_MOTION": 15.19279612, "ECCENTRICITY": 0.0002577, "INCLINATION": 97.4548, "RA_OF_ASC_NODE": 52.9487, "ARG_OF_PERICENTER": 193.7325, "MEAN_ANOMALY": 166.3839, "EPHEMERIS_TYPE": 0, "CLASSIFICATION_TYPE": "U", "NORAD_CAT_ID": 42767, "ELEMENT_SET_NO": 999, "REV_AT_EPOCH": 47116, "BSTAR": 0.00025563, "MEAN_MOTION_DOT": 5.325e-05, "MEAN_MOTION_DDOT": 0}, "tle": {"line1": "1 42767U 17036C   25355.47542050  .00005325  00000+0  25563-3 0  9998", "line2": "2 42767  97.4548  52.9487 0002577 193.7325 166.3839 15.19279612471169"}}, "geometry": {"type": "Point", "coordinates": [-122.07821699234144, 32.3177076196228]}}, {"type": "Feature", "properties": {"norad_id": 42920, "name": "FORMOSAT-5", "group": "resource", "lat": 20.946152517900554, "lon": -106.97963349128045, "alt_km": 725.7035436598926, "timestamp": "2025-12-21T16:47:54.386410+00:00", "meta": {"OBJECT_NAME": "FORMOSAT-5", "OBJECT_ID": "2017-049A", "EPOCH": "2025-12-21T11:06:08.640864", "MEAN_MOTION": 14.50765229, "ECCENTRICITY": 0.0009828, "INCLINATION": 98.2443, "RA_OF_ASC_NODE": 69.6064, "ARG_OF_PERICENTER": 271.8294, "MEAN_ANOMALY": 88.1775, "EPHEMERIS_TYPE": 0, "CLASSIFICATION_TYPE": "U", "NORAD_CAT_ID": 42920, "ELEMENT_SET_NO": 999, "REV_AT_EPOCH": 44090, "BSTAR": 5.3867e-05, "MEAN_MOTION_DOT": 1.68e-06, "MEAN_MOTION_DDOT": 0}, "tle": {"line1": "1 42920U 17049A   25355.46260001  .00000168  00000+0  53867-4 0  9994", "line2": "2 42920  98.2443  69.6064 0009828 271.8294  88.1775 14.50765229440904"}}, "geometry": {"type": "Point", "coordinates": [-106.97963349128045, 20.946152517900554]}}, {"type": "Feature", "properties": {"norad_id": 42969, "name": "SENTINEL-5P", "group": "resource", "lat": -79.92205623479862, "lon": 53.79831395131021, "alt_km": 835.0350920585834, "timestamp": "2025-12-21T16:47:54.386421+00:00", "meta": {"OBJECT_NAME": "SENTINEL-5P", "OBJECT_ID": "2017-064A", "EPOCH": "2025-12-21T10:28:43.184352", "MEAN_MOTION": 14.19519486, "ECCENTRICITY": 0.0001023, "INCLINATION": 98.7798, "RA_OF_ASC_NODE": 293.944, "ARG_OF_PERICENTER": 91.0095, "MEAN_ANOMALY": 269.1198, "EPHEMERIS_TYPE": 0, "CLASSIFICATION_TYPE": "U", "NORAD_CAT_ID": 42969, "ELEMENT_SET_NO": 999, "REV_AT_EPOCH": 42434, "BSTAR": 4.8428e-05, "MEAN_MOTION_DOT": 5.8e-07, "MEAN_MOTION_DDOT": 0}, "tle": {"line1": "1 42969U 17064A   25355.43661093  .00000058  00000+0  48428-4 0  9992", "line2": "2 42969  98.7798 293.9440 0001023  91.0095 269.1198 14.19519486424342"}}, "geometry": {"type": "Point", "coordinates": [53.79831395131021, -79.92205623479862]}}]}